GSAT0101 (PRN E11)      
1 37846U 11060A   21216.49483199 -.00000060  00000-0  00000-0 0  9992
2 37846  56.8638  29.9694 0002680  52.5538 307.5052  1.70475404 60818
GSAT0102 (PRN E12)      
1 37847U 11060B   21216.41840566 -.00000060  00000-0  00000-0 0  9990
2 37847  56.8642  29.9708 0002084   1.5030 357.9775  1.70475645 60817
GSAT0103 (PRN E19)      
1 38857U 12055A   21217.12234715 -.00000004  00000-0  00000-0 0  9997
2 38857  55.0558 150.4001 0003883 272.6472  87.2796  1.70473825 54717
GSAT0104 (PRN E20)      
1 38858U 12055B   21217.09300200 -.00000004  00000-0  00000-0 0  9997
2 38858  55.0566 150.4024 0001533 282.9759  76.9782  1.70474157 54713
GSAT0201 (PRN E18)      
1 40128U 14050A   21216.81624346 -.00000109  00000-0  00000-0 0  9992
2 40128  50.4554 344.8977 1645629 113.0843 265.0995  1.85519272 45347
GSAT0202 (PRN E14)      
1 40129U 14050B   21217.61740932 -.00000104  00000-0  00000-0 0  9997
2 40129  50.4848 343.9167 1642732 113.9194 264.1477  1.85519928 47520
GSAT0203 (PRN E26)      
1 40544U 15017A   21217.44977816 -.00000057  00000-0  00000-0 0  9993
2 40544  56.6592  30.0199 0001887 212.1538 147.8686  1.70474969 38918
GSAT0204 (PRN E22)      
1 40545U 15017B   21217.70260867 -.00000056  00000-0  00000-0 0  9993
2 40545  56.6648  30.0241 0002379 187.0407 172.9896  1.70475878  1968
GSAT0205 (PRN E24)      
1 40889U 15045A   21215.12411605  .00000021  00000-0  00000-0 0  9998
2 40889  55.8413 270.7537 0003104 346.2048  13.8714  1.70475654 36689
GSAT0206 (PRN E30)      
1 40890U 15045B   21217.68993292  .00000038  00000-0  00000-0 0  9998
2 40890  55.8385 270.6791 0002257 308.8579  51.2189  1.70475597 36757
GSAT0209 (PRN E09)      
1 41174U 15079A   21217.27829101 -.00000004  00000-0  00000+0 0  9996
2 41174  55.0721 150.0968 0004762 315.0448  44.8882  1.70472880 35067
GSAT0208 (PRN E08)      
1 41175U 15079B   21216.32478674 -.00000004  00000-0  00000-0 0  9998
2 41175  55.0702 150.1221 0004018 316.1253  43.8147  1.70472954 34884
GSAT0211 (PRN E02)      
1 41549U 16030A   21215.85872383  .00000026  00000-0  00000-0 0  9996
2 41549  55.9838 270.6293 0004048 295.3892  64.6574  1.70475364 32358
GSAT0210 (PRN E01)      
1 41550U 16030B   21217.32465844  .00000036  00000-0  00000+0 0  9992
2 41550  55.9822 270.5904 0004316 267.1607  92.8854  1.70475398 32351
GSAT0207 (PRN E07)      
1 41859U 16069A   21216.98428691 -.00000004  00000-0  00000-0 0  9993
2 41859  54.7310 150.3644 0004748 301.3877  58.5370  1.70472865 29104
GSAT0212 (PRN E03)      
1 41860U 16069B   21218.01088832 -.00000004  00000-0  00000-0 0  9990
2 41860  54.7287 150.3343 0003669 325.8626  34.0856  1.70472785 29377
GSAT0213 (PRN E04)      
1 41861U 16069C   21217.20332502 -.00000004  00000-0  00000-0 0  9997
2 41861  54.7294 150.3612 0004036 281.2127  78.7131  1.70472967 29222
GSAT0214 (PRN E05)      
1 41862U 16069D   21217.93696796 -.00000004  00000-0  00000-0 0  9996
2 41862  54.7296 150.3359 0003183 288.2558  71.6813  1.70472941 29366
GSAT0215 (PRN E21)      
1 43055U 17079A   21216.08135753  .00000028  00000-0  00000-0 0  9995
2 43055  55.9587 270.4603 0003778 260.9296  99.1173  1.70474537 22674
GSAT0216 (PRN E25)      
1 43056U 17079B   21218.13358157  .00000041  00000-0  00000-0 0  9994
2 43056  55.9580 270.4036 0005538 266.8032  93.2320  1.70474634 22720
GSAT0217 (PRN E27)      
1 43057U 17079C   21217.76714146  .00000039  00000-0  00000-0 0  9994
2 43057  55.9565 270.4137 0004915 275.9287  84.1127  1.70474628 22702
GSAT0218 (PRN E31)      
1 43058U 17079D   21217.40057557  .00000037  00000-0  00000-0 0  9990
2 43058  55.9567 270.4212 0006015 264.2836  95.7436  1.70474579 22721
GSAT0221 (PRN E15)      
1 43564U 18060A   21217.88581334 -.00000055  00000-0  00000-0 0  9991
2 43564  57.0435  29.7428 0001823 259.3398 100.6725  1.70475980 18880
GSAT0222 (PRN E33)      
1 43565U 18060B   21217.51907386 -.00000056  00000-0  00000-0 0  9992
2 43565  57.0456  29.7528 0001366 278.2954  81.7224  1.70476019 18927
GSAT0219 (PRN E36)      
1 43566U 18060C   21217.15306661 -.00000057  00000-0  00000-0 0  9993
2 43566  57.0466  29.7645 0001022 281.5522  78.4701  1.70476015 18891
GSAT0220 (PRN E13)      
1 43567U 18060D   21217.95951283 -.00000055  00000-0  00000-0 0  9996
2 43567  57.0445  29.7431 0001276 265.9037  94.1144  1.70475958 18891
